{
    "links": {
        "self": "http://www.neowsapp.com/rest/v1/neo/3789435?api_key=iIulBulltgU6a56xZRHN4H3l9WmuAYTsLGpBGhQ2"
    },
    "id": "3789435",
    "neo_reference_id": "3789435",
    "name": "(2017 UC52)",
    "designation": "2017 UC52",
    "nasa_jpl_url": "http://ssd.jpl.nasa.gov/sbdb.cgi?sstr=3789435",
    "absolute_magnitude_h": 24.272,
    "estimated_diameter": {
        "kilometers": {
            "estimated_diameter_min": 0.0371667834,
            "estimated_diameter_max": 0.0831074542
        },
        "meters": {
            "estimated_diameter_min": 37.1667833922,
            "estimated_diameter_max": 83.10745417
        },
        "miles": {
            "estimated_diameter_min": 0.0230943614,
            "estimated_diameter_max": 0.0516405619
        },
        "feet": {
            "estimated_diameter_min": 121.9382696245,
            "estimated_diameter_max": 272.6622599392
        }
    },
    "is_potentially_hazardous_asteroid": false,
    "close_approach_data": [
        {
            "close_approach_date": "2017-11-18",
            "close_approach_date_full": "2017-Nov-18 10:48",
            "epoch_date_close_approach": 1511002080000,
            "relative_velocity": {
                "kilometers_per_second": "14.7011647521",
                "kilometers_per_hour": "52924.193107421",
                "miles_per_hour": "32885.0354338861"
            },
            "miss_distance": {
                "astronomical": "0.0499112172",
                "lunar": "19.4154634908",
                "kilometers": "7466611.782227364",
                "miles": "4639537.4232670632"
            },
            "orbiting_body": "Earth"
        }
    ],
    "orbital_data": {
        "orbit_id": "1",
        "orbit_determination_date": "2017-11-18 06:21:31",
        "first_observation_date": "2017-10-28",
        "last_observation_date": "2017-10-29",
        "data_arc_in_days": 1,
        "observations_used": 11,
        "orbit_uncertainty": "9",
        "minimum_orbit_intersection": ".0130813",
        "jupiter_tisserand_invariant": "3.113",
        "epoch_osculation": "2458055.5",
        "eccentricity": ".6578573993764771",
        "semi_major_axis": "2.516648847079753",
        "inclination": "3.54976420679179",
        "ascending_node_longitude": "73.77629063554249",
        "orbital_period": "1458.251257467995",
        "perihelion_distance": ".8610527813960573",
        "perihelion_argument": "34.70451056538551",
        "aphelion_distance": "4.17224491276345",
        "perihelion_time": "2458110.822994154333",
        "mean_anomaly": "346.3423550683981",
        "mean_motion": ".2468710369055869",
        "equinox": "J2000",
        "orbit_class": {
            "orbit_class_type": "APO",
            "orbit_class_description": "Near-Earth asteroid orbits which cross the Earth’s orbit similar to that of 1862 Apollo",
            "orbit_class_range": "a (semi-major axis) > 1.0 AU; q (perihelion) < 1.017 AU"
        }
    },
    "is_sentry_object": false
}